[{"OBJECT_NAME":"ONEWEB-0627","OBJECT_ID":"2023-004AE","EPOCH":"2025-12-29T11:55:04.101600","MEAN_MOTION":13.17649171,"ECCENTRICITY":0.0002067,"INCLINATION":87.9091,"RA_OF_ASC_NODE":39.6155,"ARG_OF_PERICENTER":113.8191,"MEAN_ANOMALY":246.3158,"EPHEMERIS_TYPE":0,"CLASSIFICATION_TYPE":"U","NORAD_CAT_ID":55168,"ELEMENT_SET_NO":999,"REV_AT_EPOCH":14523,"BSTAR":9.708e-5,"MEAN_MOTION_DOT":5.1e-7,"MEAN_MOTION_DDOT":0},{"OBJECT_NAME":"ONEWEB-0628","OBJECT_ID":"2023-004AF","EPOCH":"2025-12-29T11:20:15.130176","MEAN_MOTION":13.12444946,"ECCENTRICITY":0.0002426,"INCLINATION":87.8929,"RA_OF_ASC_NODE":24.3578,"ARG_OF_PERICENTER":106.0285,"MEAN_ANOMALY":254.1111,"EPHEMERIS_TYPE":0,"CLASSIFICATION_TYPE":"U","NORAD_CAT_ID":55169,"ELEMENT_SET_NO":999,"REV_AT_EPOCH":14577,"BSTAR":-0.00090279,"MEAN_MOTION_DOT":-3.12e-6,"MEAN_MOTION_DDOT":0},{"OBJECT_NAME":"ONEWEB-0629","OBJECT_ID":"2023-004AG","EPOCH":"2025-12-29T11:19:49.942848","MEAN_MOTION":13.17648497,"ECCENTRICITY":0.0002132,"INCLINATION":87.9093,"RA_OF_ASC_NODE":39.6178,"ARG_OF_PERICENTER":94.7824,"MEAN_ANOMALY":265.3551,"EPHEMERIS_TYPE":0,"CLASSIFICATION_TYPE":"U","NORAD_CAT_ID":55170,"ELEMENT_SET_NO":999,"REV_AT_EPOCH":14523,"BSTAR":-4.8731e-5,"MEAN_MOTION_DOT":-6.0e-8,"MEAN_MOTION_DDOT":0},{"OBJECT_NAME":"ONEWEB-0631","OBJECT_ID":"2023-004AH","EPOCH":"2025-12-29T10:35:25.968192","MEAN_MOTION":13.18684906,"ECCENTRICITY":0.0001325,"INCLINATION":87.9175,"RA_OF_ASC_NODE":9.1405,"ARG_OF_PERICENTER":100.5893,"MEAN_ANOMALY":259.5389,"EPHEMERIS_TYPE":0,"CLASSIFICATION_TYPE":"U","NORAD_CAT_ID":55171,"ELEMENT_SET_NO":999,"REV_AT_EPOCH":14730,"BSTAR":-0.00036832,"MEAN_MOTION_DOT":-1.32e-6,"MEAN_MOTION_DDOT":0},{"OBJECT_NAME":"ONEWEB-0709","OBJECT_ID":"2023-004AJ","EPOCH":"2025-12-29T12:29:16.427328","MEAN_MOTION":13.11416797,"ECCENTRICITY":9.12e-5,"INCLINATION":87.884,"RA_OF_ASC_NODE":54.8693,"ARG_OF_PERICENTER":93.677,"MEAN_ANOMALY":266.4462,"EPHEMERIS_TYPE":0,"CLASSIFICATION_TYPE":"U","NORAD_CAT_ID":55172,"ELEMENT_SET_NO":999,"REV_AT_EPOCH":14363,"BSTAR":0.0017219,"MEAN_MOTION_DOT":6.23e-6,"MEAN_MOTION_DDOT":0},{"OBJECT_NAME":"ONEWEB-0710","OBJECT_ID":"2023-004AK","EPOCH":"2025-12-29T11:40:29.170272","MEAN_MOTION":13.17649733,"ECCENTRICITY":0.0001811,"INCLINATION":87.9093,"RA_OF_ASC_NODE":39.6095,"ARG_OF_PERICENTER":102.5851,"MEAN_ANOMALY":257.5483,"EPHEMERIS_TYPE":0,"CLASSIFICATION_TYPE":"U","NORAD_CAT_ID":55173,"ELEMENT_SET_NO":999,"REV_AT_EPOCH":14523,"BSTAR":8.6325e-5,"MEAN_MOTION_DOT":4.6e-7,"MEAN_MOTION_DDOT":0},{"OBJECT_NAME":"ONEWEB-0711","OBJECT_ID":"2023-004AL","EPOCH":"2025-12-29T02:38:25.949184","MEAN_MOTION":13.11420087,"ECCENTRICITY":0.00022277,"INCLINATION":87.8848,"RA_OF_ASC_NODE":54.9266,"ARG_OF_PERICENTER":120.233,"MEAN_ANOMALY":239.9018,"EPHEMERIS_TYPE":0,"CLASSIFICATION_TYPE":"U","NORAD_CAT_ID":55174,"ELEMENT_SET_NO":999,"REV_AT_EPOCH":14354,"BSTAR":-0.0010136888,"MEAN_MOTION_DOT":-3.47e-6,"MEAN_MOTION_DDOT":0},{"OBJECT_NAME":"ONEWEB-0713","OBJECT_ID":"2023-004AM","EPOCH":"2025-12-29T04:55:09.433920","MEAN_MOTION":13.11418198,"ECCENTRICITY":0.0002007,"INCLINATION":87.8844,"RA_OF_ASC_NODE":54.9096,"ARG_OF_PERICENTER":112.8533,"MEAN_ANOMALY":247.2807,"EPHEMERIS_TYPE":0,"CLASSIFICATION_TYPE":"U","NORAD_CAT_ID":55175,"ELEMENT_SET_NO":999,"REV_AT_EPOCH":14354,"BSTAR":0.0010763,"MEAN_MOTION_DOT":3.94e-6,"MEAN_MOTION_DDOT":0},{"OBJECT_NAME":"ONEWEB-0715","OBJECT_ID":"2023-004AN","EPOCH":"2025-12-29T04:47:49.638048","MEAN_MOTION":13.11417751,"ECCENTRICITY":0.00010673,"INCLINATION":87.8848,"RA_OF_ASC_NODE":54.911,"ARG_OF_PERICENTER":113.0522,"MEAN_ANOMALY":247.0718,"EPHEMERIS_TYPE":0,"CLASSIFICATION_TYPE":"U","NORAD_CAT_ID":55176,"ELEMENT_SET_NO":999,"REV_AT_EPOCH":14358,"BSTAR":0.00028398702,"MEAN_MOTION_DOT":1.13e-6,"MEAN_MOTION_DDOT":0},{"OBJECT_NAME":"ONEWEB-0716","OBJECT_ID":"2023-004AP","EPOCH":"2025-12-29T11:30:44.555904","MEAN_MOTION":13.17650798,"ECCENTRICITY":0.000186,"INCLINATION":87.9095,"RA_OF_ASC_NODE":39.6109,"ARG_OF_PERICENTER":90.0761,"MEAN_ANOMALY":270.0584,"EPHEMERIS_TYPE":0,"CLASSIFICATION_TYPE":"U","NORAD_CAT_ID":55177,"ELEMENT_SET_NO":999,"REV_AT_EPOCH":14523,"BSTAR":5.7787e-5,"MEAN_MOTION_DOT":3.5e-7,"MEAN_MOTION_DDOT":0},{"OBJECT_NAME":"ONEWEB-0717","OBJECT_ID":"2023-004AQ","EPOCH":"2025-12-29T03:49:02.415072","MEAN_MOTION":13.17650626,"ECCENTRICITY":0.00019594,"INCLINATION":87.9103,"RA_OF_ASC_NODE":39.6472,"ARG_OF_PERICENTER":118.4412,"MEAN_ANOMALY":241.6917,"EPHEMERIS_TYPE":0,"CLASSIFICATION_TYPE":"U","NORAD_CAT_ID":55178,"ELEMENT_SET_NO":999,"REV_AT_EPOCH":14524,"BSTAR":0.00026993619,"MEAN_MOTION_DOT":1.18e-6,"MEAN_MOTION_DDOT":0},{"OBJECT_NAME":"ONEWEB-0719","OBJECT_ID":"2023-004AR","EPOCH":"2025-12-29T00:24:57.602304","MEAN_MOTION":13.17649019,"ECCENTRICITY":0.00020033,"INCLINATION":87.9102,"RA_OF_ASC_NODE":39.6577,"ARG_OF_PERICENTER":93.3991,"MEAN_ANOMALY":266.737,"EPHEMERIS_TYPE":0,"CLASSIFICATION_TYPE":"U","NORAD_CAT_ID":55179,"ELEMENT_SET_NO":999,"REV_AT_EPOCH":14517,"BSTAR":0.00010024883,"MEAN_MOTION_DOT":5.2e-7,"MEAN_MOTION_DDOT":0},{"OBJECT_NAME":"ONEWEB-0530","OBJECT_ID":"2023-029A","EPOCH":"2025-12-29T07:40:03.624960","MEAN_MOTION":13.20771379,"ECCENTRICITY":0.0002066,"INCLINATION":87.9214,"RA_OF_ASC_NODE":308.3631,"ARG_OF_PERICENTER":92.8538,"MEAN_ANOMALY":267.2832,"EPHEMERIS_TYPE":0,"CLASSIFICATION_TYPE":"U","NORAD_CAT_ID":55796,"ELEMENT_SET_NO":999,"REV_AT_EPOCH":13872,"BSTAR":9.0247e-6,"MEAN_MOTION_DOT":1.7e-7,"MEAN_MOTION_DDOT":0},{"OBJECT_NAME":"ONEWEB-0534","OBJECT_ID":"2023-029B","EPOCH":"2025-12-29T09:10:59.079936","MEAN_MOTION":13.20769984,"ECCENTRICITY":0.0001893,"INCLINATION":87.9213,"RA_OF_ASC_NODE":308.3505,"ARG_OF_PERICENTER":75.7166,"MEAN_ANOMALY":284.4178,"EPHEMERIS_TYPE":0,"CLASSIFICATION_TYPE":"U","NORAD_CAT_ID":55797,"ELEMENT_SET_NO":999,"REV_AT_EPOCH":13873,"BSTAR":7.757e-5,"MEAN_MOTION_DOT":4.5e-7,"MEAN_MOTION_DDOT":0},{"OBJECT_NAME":"ONEWEB-0556","OBJECT_ID":"2023-029C","EPOCH":"2025-12-28T22:25:30.402624","MEAN_MOTION":13.20773292,"ECCENTRICITY":0.00027593,"INCLINATION":87.9216,"RA_OF_ASC_NODE":308.4403,"ARG_OF_PERICENTER":76.086,"MEAN_ANOMALY":284.058,"EPHEMERIS_TYPE":0,"CLASSIFICATION_TYPE":"U","NORAD_CAT_ID":55798,"ELEMENT_SET_NO":999,"REV_AT_EPOCH":13867,"BSTAR":-9.0310548e-5,"MEAN_MOTION_DOT":-2.4e-7,"MEAN_MOTION_DDOT":0},{"OBJECT_NAME":"ONEWEB-0562","OBJECT_ID":"2023-029D","EPOCH":"2025-12-29T09:01:53.306688","MEAN_MOTION":13.20772547,"ECCENTRICITY":0.0002539,"INCLINATION":87.921,"RA_OF_ASC_NODE":308.3337,"ARG_OF_PERICENTER":94.3727,"MEAN_ANOMALY":265.7697,"EPHEMERIS_TYPE":0,"CLASSIFICATION_TYPE":"U","NORAD_CAT_ID":55799,"ELEMENT_SET_NO":999,"REV_AT_EPOCH":13873,"BSTAR":-6.4987e-5,"MEAN_MOTION_DOT":-1.3e-7,"MEAN_MOTION_DDOT":0},{"OBJECT_NAME":"ONEWEB-0563","OBJECT_ID":"2023-029E","EPOCH":"2025-12-29T08:52:48.309312","MEAN_MOTION":13.20770489,"ECCENTRICITY":0.0002121,"INCLINATION":87.9212,"RA_OF_ASC_NODE":308.3647,"ARG_OF_PERICENTER":68.0984,"MEAN_ANOMALY":292.0374,"EPHEMERIS_TYPE":0,"CLASSIFICATION_TYPE":"U","NORAD_CAT_ID":55800,"ELEMENT_SET_NO":999,"REV_AT_EPOCH":13872,"BSTAR":-2.4435e-5,"MEAN_MOTION_DOT":3.0e-8,"MEAN_MOTION_DDOT":0}]
