ONEWEB-0627             
1 55168U 23004AE  25363.49657525  .00000051  00000+0  97080-4 0  9999
2 55168  87.9091  39.6155 0002067 113.8191 246.3158 13.17649171145233
ONEWEB-0628             
1 55169U 23004AF  25363.47239734 -.00000312  00000+0 -90279-3 0  9990
2 55169  87.8929  24.3578 0002426 106.0285 254.1111 13.12444946145773
ONEWEB-0629             
1 55170U 23004AG  25363.47210582 -.00000006  00000+0 -48731-4 0  9999
2 55170  87.9093  39.6178 0002132  94.7824 265.3551 13.17648497145234
ONEWEB-0631             
1 55171U 23004AH  25363.44127278 -.00000132  00000+0 -36832-3 0  9994
2 55171  87.9175   9.1405 0001325 100.5893 259.5389 13.18684906147306
ONEWEB-0709             
1 55172U 23004AJ  25363.52032902  .00000623  00000+0  17219-2 0  9993
2 55172  87.8840  54.8693 0000912  93.6770 266.4462 13.11416797143633
ONEWEB-0710             
1 55173U 23004AK  25363.48644873  .00000046  00000+0  86325-4 0  9990
2 55173  87.9093  39.6095 0001811 102.5851 257.5483 13.17649733145237
ONEWEB-0711             
1 55174U 23004AL  25363.11002256 -.00000347  00000+0 -10137-2 0  9996
2 55174  87.8848  54.9266 0002227 120.2330 239.9018 13.11420087143549
ONEWEB-0713             
1 55175U 23004AM  25363.20497030  .00000394  00000+0  10763-2 0  9990
2 55175  87.8844  54.9096 0002007 112.8533 247.2807 13.11418198143543
ONEWEB-0715             
1 55176U 23004AN  25363.19988007  .00000113  00000+0  28399-3 0  9992
2 55176  87.8848  54.9110 0001067 113.0522 247.0718 13.11417751143588
ONEWEB-0716             
1 55177U 23004AP  25363.47968236  .00000035  00000+0  57787-4 0  9993
2 55177  87.9095  39.6109 0001860  90.0761 270.0584 13.17650798145239
ONEWEB-0717             
1 55178U 23004AQ  25363.15905573  .00000118  00000+0  26994-3 0  9991
2 55178  87.9103  39.6472 0001959 118.4412 241.6917 13.17650626145245
ONEWEB-0719             
1 55179U 23004AR  25363.01733336  .00000052  00000+0  10025-3 0  9998
2 55179  87.9102  39.6577 0002003  93.3991 266.7370 13.17649019145172
ONEWEB-0530             
1 55796U 23029A   25363.31948640  .00000017  00000+0  90247-5 0  9996
2 55796  87.9214 308.3631 0002066  92.8538 267.2832 13.20771379138729
ONEWEB-0534             
1 55797U 23029B   25363.38262824  .00000045  00000+0  77570-4 0  9991
2 55797  87.9213 308.3505 0001893  75.7166 284.4178 13.20769984138737
ONEWEB-0556             
1 55798U 23029C   25362.93437966 -.00000024  00000+0 -90311-4 0  9990
2 55798  87.9216 308.4403 0002759  76.0860 284.0580 13.20773292138679
ONEWEB-0562             
1 55799U 23029D   25363.37631142 -.00000013  00000+0 -64987-4 0  9990
2 55799  87.9210 308.3337 0002539  94.3727 265.7697 13.20772547138734
ONEWEB-0563             
1 55800U 23029E   25363.37000358  .00000003  00000+0 -24435-4 0  9994
2 55800  87.9212 308.3647 0002121  68.0984 292.0374 13.20770489138720
